COSMOS 1933             
1 18958U 88020A   26012.88133887  .00004216  00000+0  20923-3 0  9997
2 18958  82.5148 306.1051 0005798  50.3234 309.8510 15.17437919 41764
SL-3 R/B                
1 19046U 88032B   26012.95601543  .00004473  00000+0  21415-3 0  9998
2 19046  97.5110 356.4737 0028323  69.8116 290.6161 15.19123397 43642
SL-16 R/B               
1 19120U 88039B   26012.89185518  .00000036  00000+0  39491-4 0  9995
2 19120  71.0133 186.5304 0019729  62.8959 297.4176 14.19604711950468
COSMOS 1953             
1 19210U 88050A   26012.95927193  .00005544  00000+0  20544-3 0  9995
2 19210  82.5072 214.2447 0011009 326.8703  33.1845 15.27360770 29275
SL-8 R/B                
1 19257U 88053B   26012.97537167  .00000114  00000+0  45533-4 0  9993
2 19257  74.0452 215.1514 0019308  47.7287  59.7509 14.38879607968587
COSMOS 1975             
1 19573U 88093A   26012.91327533  .00005888  00000+0  22066-3 0  9994
2 19573  82.5198 173.6087 0011882  12.6109 347.5425 15.26990289 10890
SL-14 R/B               
1 19574U 88093B   26012.98183302  .00000407  00000+0  44111-4 0  9994
2 19574  82.5313  94.3495 0019763 219.1863 313.7107 14.85590067992760
SL-16 R/B               
1 19650U 88102B   26012.96191295  .00000209  00000+0  12973-3 0  9998
2 19650  70.9992 268.7509 0011989  97.0980 263.1507 14.16142612919008
INTERCOSMOS 24          
1 20261U 89080A   26012.88479761  .00000387  00000+0  10503-3 0  9996
2 20261  82.6076 140.7076 1188984  62.3080 309.3533 12.59485582659774
SL-14 R/B               
1 20262U 89080C   26012.78619275  .00000249  00000+0  74643-4 0  9995
2 20262  82.5910 209.0844 1229829 312.6254  37.7281 12.50437777653164
DELTA 1 R/B             
1 20323U 89089B   26012.54227293  .00000381  00000+0  10328-3 0  9997
2 20323  97.0736 228.8963 0067790 300.8332  58.6208 14.50604382887599
ARIANE 40 R/B           
1 20443U 90005H   26012.87245860  .00000211  00000+0  80755-4 0  9990
2 20443  98.3198  75.1642 0010314  19.5520 340.6062 14.39824962884772
