CCSDS_OMM_VERS = 2.0
CREATION_DATE  = 
ORIGINATOR     = 

OBJECT_NAME    = COSMOS 1933
OBJECT_ID      = 1988-020A
CENTER_NAME    = EARTH
REF_FRAME      = TEME
TIME_SYSTEM    = UTC
MEAN_ELEMENT_THEORY = SGP/SGP4

EPOCH          = 2026-01-12T21:09:07.678368
MEAN_MOTION    = 15.17437919
ECCENTRICITY   = .00057986
INCLINATION    = 82.5148
RA_OF_ASC_NODE = 306.1051
ARG_OF_PERICENTER = 50.3234
MEAN_ANOMALY   = 309.8510

EPHEMERIS_TYPE = 0
CLASSIFICATION_TYPE = U
NORAD_CAT_ID   = 18958
ELEMENT_SET_NO = 999
REV_AT_EPOCH   = 4176
BSTAR          = .2092328E-3
MEAN_MOTION_DOT = .4216E-4
MEAN_MOTION_DDOT = 0

CCSDS_OMM_VERS = 2.0
CREATION_DATE  = 
ORIGINATOR     = 

OBJECT_NAME    = SL-3 R/B
OBJECT_ID      = 1988-032B
CENTER_NAME    = EARTH
REF_FRAME      = TEME
TIME_SYSTEM    = UTC
MEAN_ELEMENT_THEORY = SGP/SGP4

EPOCH          = 2026-01-12T22:56:39.733152
MEAN_MOTION    = 15.19123397
ECCENTRICITY   = .00283235
INCLINATION    = 97.5110
RA_OF_ASC_NODE = 356.4737
ARG_OF_PERICENTER = 69.8116
MEAN_ANOMALY   = 290.6161

EPHEMERIS_TYPE = 0
CLASSIFICATION_TYPE = U
NORAD_CAT_ID   = 19046
ELEMENT_SET_NO = 999
REV_AT_EPOCH   = 4364
BSTAR          = .21414801E-3
MEAN_MOTION_DOT = .4473E-4
MEAN_MOTION_DDOT = 0

CCSDS_OMM_VERS = 2.0
CREATION_DATE  = 
ORIGINATOR     = 

OBJECT_NAME    = SL-16 R/B
OBJECT_ID      = 1988-039B
CENTER_NAME    = EARTH
REF_FRAME      = TEME
TIME_SYSTEM    = UTC
MEAN_ELEMENT_THEORY = SGP/SGP4

EPOCH          = 2026-01-12T21:24:16.287552
MEAN_MOTION    = 14.19604711
ECCENTRICITY   = .00197298
INCLINATION    = 71.0133
RA_OF_ASC_NODE = 186.5304
ARG_OF_PERICENTER = 62.8959
MEAN_ANOMALY   = 297.4176

EPHEMERIS_TYPE = 0
CLASSIFICATION_TYPE = U
NORAD_CAT_ID   = 19120
ELEMENT_SET_NO = 999
REV_AT_EPOCH   = 95046
BSTAR          = .39491122E-4
MEAN_MOTION_DOT = .36E-6
MEAN_MOTION_DDOT = 0

CCSDS_OMM_VERS = 2.0
CREATION_DATE  = 
ORIGINATOR     = 

OBJECT_NAME    = COSMOS 1953
OBJECT_ID      = 1988-050A
CENTER_NAME    = EARTH
REF_FRAME      = TEME
TIME_SYSTEM    = UTC
MEAN_ELEMENT_THEORY = SGP/SGP4

EPOCH          = 2026-01-12T23:01:21.094752
MEAN_MOTION    = 15.27360770
ECCENTRICITY   = .00110096
INCLINATION    = 82.5072
RA_OF_ASC_NODE = 214.2447
ARG_OF_PERICENTER = 326.8703
MEAN_ANOMALY   = 33.1845

EPHEMERIS_TYPE = 0
CLASSIFICATION_TYPE = U
NORAD_CAT_ID   = 19210
ELEMENT_SET_NO = 999
REV_AT_EPOCH   = 2927
BSTAR          = .20544081E-3
MEAN_MOTION_DOT = .5544E-4
MEAN_MOTION_DDOT = 0

CCSDS_OMM_VERS = 2.0
CREATION_DATE  = 
ORIGINATOR     = 

OBJECT_NAME    = SL-8 R/B
OBJECT_ID      = 1988-053B
CENTER_NAME    = EARTH
REF_FRAME      = TEME
TIME_SYSTEM    = UTC
MEAN_ELEMENT_THEORY = SGP/SGP4

EPOCH          = 2026-01-12T23:24:32.112288
MEAN_MOTION    = 14.38879607
ECCENTRICITY   = .00193088
INCLINATION    = 74.0452
RA_OF_ASC_NODE = 215.1514
ARG_OF_PERICENTER = 47.7287
MEAN_ANOMALY   = 59.7509

EPHEMERIS_TYPE = 0
CLASSIFICATION_TYPE = U
NORAD_CAT_ID   = 19257
ELEMENT_SET_NO = 999
REV_AT_EPOCH   = 96858
BSTAR          = .45532813E-4
MEAN_MOTION_DOT = .114E-5
MEAN_MOTION_DDOT = 0

CCSDS_OMM_VERS = 2.0
CREATION_DATE  = 
ORIGINATOR     = 

OBJECT_NAME    = COSMOS 1975
OBJECT_ID      = 1988-093A
CENTER_NAME    = EARTH
REF_FRAME      = TEME
TIME_SYSTEM    = UTC
MEAN_ELEMENT_THEORY = SGP/SGP4

EPOCH          = 2026-01-12T21:55:06.988512
MEAN_MOTION    = 15.26990289
ECCENTRICITY   = .0011882
INCLINATION    = 82.5198
RA_OF_ASC_NODE = 173.6087
ARG_OF_PERICENTER = 12.6109
MEAN_ANOMALY   = 347.5425

EPHEMERIS_TYPE = 0
CLASSIFICATION_TYPE = U
NORAD_CAT_ID   = 19573
ELEMENT_SET_NO = 999
REV_AT_EPOCH   = 1089
BSTAR          = .22066492E-3
MEAN_MOTION_DOT = .5888E-4
MEAN_MOTION_DDOT = 0

CCSDS_OMM_VERS = 2.0
CREATION_DATE  = 
ORIGINATOR     = 

OBJECT_NAME    = SL-14 R/B
OBJECT_ID      = 1988-093B
CENTER_NAME    = EARTH
REF_FRAME      = TEME
TIME_SYSTEM    = UTC
MEAN_ELEMENT_THEORY = SGP/SGP4

EPOCH          = 2026-01-12T23:33:50.372928
MEAN_MOTION    = 14.85590067
ECCENTRICITY   = .00197636
INCLINATION    = 82.5313
RA_OF_ASC_NODE = 94.3495
ARG_OF_PERICENTER = 219.1863
MEAN_ANOMALY   = 313.7107

EPHEMERIS_TYPE = 0
CLASSIFICATION_TYPE = U
NORAD_CAT_ID   = 19574
ELEMENT_SET_NO = 999
REV_AT_EPOCH   = 99276
BSTAR          = .44110781E-4
MEAN_MOTION_DOT = .407E-5
MEAN_MOTION_DDOT = 0

CCSDS_OMM_VERS = 2.0
CREATION_DATE  = 
ORIGINATOR     = 

OBJECT_NAME    = SL-16 R/B
OBJECT_ID      = 1988-102B
CENTER_NAME    = EARTH
REF_FRAME      = TEME
TIME_SYSTEM    = UTC
MEAN_ELEMENT_THEORY = SGP/SGP4

EPOCH          = 2026-01-12T23:05:09.278880
MEAN_MOTION    = 14.16142612
ECCENTRICITY   = .00119894
INCLINATION    = 70.9992
RA_OF_ASC_NODE = 268.7509
ARG_OF_PERICENTER = 97.0980
MEAN_ANOMALY   = 263.1507

EPHEMERIS_TYPE = 0
CLASSIFICATION_TYPE = U
NORAD_CAT_ID   = 19650
ELEMENT_SET_NO = 999
REV_AT_EPOCH   = 91900
BSTAR          = .12972828E-3
MEAN_MOTION_DOT = .209E-5
MEAN_MOTION_DDOT = 0

CCSDS_OMM_VERS = 2.0
CREATION_DATE  = 
ORIGINATOR     = 

OBJECT_NAME    = INTERCOSMOS 24
OBJECT_ID      = 1989-080A
CENTER_NAME    = EARTH
REF_FRAME      = TEME
TIME_SYSTEM    = UTC
MEAN_ELEMENT_THEORY = SGP/SGP4

EPOCH          = 2026-01-12T21:14:06.513504
MEAN_MOTION    = 12.59485582
ECCENTRICITY   = .11889845
INCLINATION    = 82.6076
RA_OF_ASC_NODE = 140.7076
ARG_OF_PERICENTER = 62.3080
MEAN_ANOMALY   = 309.3533

EPHEMERIS_TYPE = 0
CLASSIFICATION_TYPE = U
NORAD_CAT_ID   = 20261
ELEMENT_SET_NO = 999
REV_AT_EPOCH   = 65977
BSTAR          = .1050317E-3
MEAN_MOTION_DOT = .387E-5
MEAN_MOTION_DDOT = 0

CCSDS_OMM_VERS = 2.0
CREATION_DATE  = 
ORIGINATOR     = 

OBJECT_NAME    = SL-14 R/B
OBJECT_ID      = 1989-080C
CENTER_NAME    = EARTH
REF_FRAME      = TEME
TIME_SYSTEM    = UTC
MEAN_ELEMENT_THEORY = SGP/SGP4

EPOCH          = 2026-01-12T18:52:07.053600
MEAN_MOTION    = 12.50437777
ECCENTRICITY   = .12298297
INCLINATION    = 82.5910
RA_OF_ASC_NODE = 209.0844
ARG_OF_PERICENTER = 312.6254
MEAN_ANOMALY   = 37.7281

EPHEMERIS_TYPE = 0
CLASSIFICATION_TYPE = U
NORAD_CAT_ID   = 20262
ELEMENT_SET_NO = 999
REV_AT_EPOCH   = 65316
BSTAR          = .7464261E-4
MEAN_MOTION_DOT = .249E-5
MEAN_MOTION_DDOT = 0

CCSDS_OMM_VERS = 2.0
CREATION_DATE  = 
ORIGINATOR     = 

OBJECT_NAME    = DELTA 1 R/B
OBJECT_ID      = 1989-089B
CENTER_NAME    = EARTH
REF_FRAME      = TEME
TIME_SYSTEM    = UTC
MEAN_ELEMENT_THEORY = SGP/SGP4

EPOCH          = 2026-01-12T13:00:52.381152
MEAN_MOTION    = 14.50604382
ECCENTRICITY   = .00677908
INCLINATION    = 97.0736
RA_OF_ASC_NODE = 228.8963
ARG_OF_PERICENTER = 300.8332
MEAN_ANOMALY   = 58.6208

EPHEMERIS_TYPE = 0
CLASSIFICATION_TYPE = U
NORAD_CAT_ID   = 20323
ELEMENT_SET_NO = 999
REV_AT_EPOCH   = 88759
BSTAR          = .10327687E-3
MEAN_MOTION_DOT = .381E-5
MEAN_MOTION_DDOT = 0

CCSDS_OMM_VERS = 2.0
CREATION_DATE  = 
ORIGINATOR     = 

OBJECT_NAME    = ARIANE 40 R/B
OBJECT_ID      = 1990-005H
CENTER_NAME    = EARTH
REF_FRAME      = TEME
TIME_SYSTEM    = UTC
MEAN_ELEMENT_THEORY = SGP/SGP4

EPOCH          = 2026-01-12T20:56:20.423040
MEAN_MOTION    = 14.39824962
ECCENTRICITY   = .00103141
INCLINATION    = 98.3198
RA_OF_ASC_NODE = 75.1642
ARG_OF_PERICENTER = 19.5520
MEAN_ANOMALY   = 340.6062

EPHEMERIS_TYPE = 0
CLASSIFICATION_TYPE = U
NORAD_CAT_ID   = 20443
ELEMENT_SET_NO = 999
REV_AT_EPOCH   = 88477
BSTAR          = .80755156E-4
MEAN_MOTION_DOT = .211E-5
MEAN_MOTION_DDOT = 0

